{
  "type": "FeatureCollection",
  "features": [
    {
      "type": "Feature",
      "properties": {
        "norad_id": 30931,
        "name": "FENGYUN 1C DEB",
        "group": "fengyun-1c-debris",
        "lat": 21.279634118086154,
        "lon": 51.18771178505143,
        "alt_km": 821.6264830645532,
        "timestamp": "2025-12-23T05:02:12.310278+00:00",
        "meta_object_name": "FENGYUN 1C DEB",
        "meta_object_id": "1999-025AZV",
        "meta_epoch": "2025-12-22T03:22:18.673824",
        "meta_mean_motion": 14.01528839,
        "meta_eccentricity": 0.00928222,
        "meta_inclination": 99.1711,
        "meta_ra_of_asc_node": 53.7206,
        "meta_arg_of_pericenter": 15.5474,
        "meta_mean_anomaly": 13.3889,
        "meta_ephemeris_type": 0,
        "meta_classification_type": "U",
        "meta_norad_cat_id": 30931,
        "meta_element_set_no": 999,
        "meta_rev_at_epoch": 96057,
        "meta_bstar": 0.00052237191,
        "meta_mean_motion_dot": 7.75e-06,
        "meta_mean_motion_ddot": 0,
        "tle_line1": "1 30931U 99025AZV 25356.14049391  .00000775  00000+0  52237-3 0  9993",
        "tle_line2": "2 30931  99.1711  53.7206 0092822  15.5474  13.3889 14.01528839960578"
      },
      "geometry": {
        "type": "Point",
        "coordinates": [
          51.18771178505143,
          21.279634118086154
        ]
      }
    },
    {
      "type": "Feature",
      "properties": {
        "norad_id": 30932,
        "name": "FENGYUN 1C DEB",
        "group": "fengyun-1c-debris",
        "lat": -4.155509903175957,
        "lon": 109.6485346735828,
        "alt_km": 797.8946869899746,
        "timestamp": "2025-12-23T05:02:12.310288+00:00",
        "meta_object_name": "FENGYUN 1C DEB",
        "meta_object_id": "1999-025AZW",
        "meta_epoch": "2025-12-21T06:43:56.374176",
        "meta_mean_motion": 14.26904015,
        "meta_eccentricity": 0.00571492,
        "meta_inclination": 98.9092,
        "meta_ra_of_asc_node": 288.3376,
        "meta_arg_of_pericenter": 269.3371,
        "meta_mean_anomaly": 90.126,
        "meta_ephemeris_type": 0,
        "meta_classification_type": "U",
        "meta_norad_cat_id": 30932,
        "meta_element_set_no": 999,
        "meta_rev_at_epoch": 96516,
        "meta_bstar": 0.0018186282,
        "meta_mean_motion_dot": 4.449e-05,
        "meta_mean_motion_ddot": 0,
        "tle_line1": "1 30932U 99025AZW 25355.28051359  .00004449  00000+0  18186-2 0  9991",
        "tle_line2": "2 30932  98.9092 288.3376 0057149 269.3371  90.1260 14.26904015965167"
      },
      "geometry": {
        "type": "Point",
        "coordinates": [
          109.6485346735828,
          -4.155509903175957
        ]
      }
    },
    {
      "type": "Feature",
      "properties": {
        "norad_id": 30933,
        "name": "FENGYUN 1C DEB",
        "group": "fengyun-1c-debris",
        "lat": 80.91790617240596,
        "lon": -114.29641265725377,
        "alt_km": 811.9402433470023,
        "timestamp": "2025-12-23T05:02:12.310300+00:00",
        "meta_object_name": "FENGYUN 1C DEB",
        "meta_object_id": "1999-025AZX",
        "meta_epoch": "2025-12-22T19:08:52.155168",
        "meta_mean_motion": 14.36749826,
        "meta_eccentricity": 0.00757355,
        "meta_inclination": 99.0485,
        "meta_ra_of_asc_node": 339.7954,
        "meta_arg_of_pericenter": 293.7838,
        "meta_mean_anomaly": 186.614,
        "meta_ephemeris_type": 0,
        "meta_classification_type": "U",
        "meta_norad_cat_id": 30933,
        "meta_element_set_no": 999,
        "meta_rev_at_epoch": 96016,
        "meta_bstar": 0.0047572673,
        "meta_mean_motion_dot": 0.00014481,
        "meta_mean_motion_ddot": 0,
        "tle_line1": "1 30933U 99025AZX 25356.79782587  .00014481  00000+0  47573-2 0  9992",
        "tle_line2": "2 30933  99.0485 339.7954 0075735 293.7838 186.6140 14.36749826960160"
      },
      "geometry": {
        "type": "Point",
        "coordinates": [
          -114.29641265725377,
          80.91790617240596
        ]
      }
    },
    {
      "type": "Feature",
      "properties": {
        "norad_id": 30934,
        "name": "FENGYUN 1C DEB",
        "group": "fengyun-1c-debris",
        "lat": -64.49239161555377,
        "lon": 34.05898620314244,
        "alt_km": 1340.9111579043947,
        "timestamp": "2025-12-23T05:02:12.310312+00:00",
        "meta_object_name": "FENGYUN 1C DEB",
        "meta_object_id": "1999-025AZY",
        "meta_epoch": "2025-12-22T08:13:08.440320",
        "meta_mean_motion": 13.46777047,
        "meta_eccentricity": 0.03411921,
        "meta_inclination": 98.7655,
        "meta_ra_of_asc_node": 232.1637,
        "meta_arg_of_pericenter": 57.0731,
        "meta_mean_anomaly": 306.2738,
        "meta_ephemeris_type": 0,
        "meta_classification_type": "U",
        "meta_norad_cat_id": 30934,
        "meta_element_set_no": 999,
        "meta_rev_at_epoch": 91837,
        "meta_bstar": 0.0020962179,
        "meta_mean_motion_dot": 1.772e-05,
        "meta_mean_motion_ddot": 0,
        "tle_line1": "1 30934U 99025AZY 25356.34245880  .00001772  00000+0  20962-2 0  9996",
        "tle_line2": "2 30934  98.7655 232.1637 0341192  57.0731 306.2738 13.46777047918371"
      },
      "geometry": {
        "type": "Point",
        "coordinates": [
          34.05898620314244,
          -64.49239161555377
        ]
      }
    },
    {
      "type": "Feature",
      "properties": {
        "norad_id": 30936,
        "name": "FENGYUN 1C DEB",
        "group": "fengyun-1c-debris",
        "lat": -74.11742750180342,
        "lon": 59.80160137255559,
        "alt_km": 790.8381179324879,
        "timestamp": "2025-12-23T05:02:12.310323+00:00",
        "meta_object_name": "FENGYUN 1C DEB",
        "meta_object_id": "1999-025BAA",
        "meta_epoch": "2025-12-22T08:04:21.841824",
        "meta_mean_motion": 14.23394361,
        "meta_eccentricity": 0.00460409,
        "meta_inclination": 98.5808,
        "meta_ra_of_asc_node": 26.8995,
        "meta_arg_of_pericenter": 262.2654,
        "meta_mean_anomaly": 227.4923,
        "meta_ephemeris_type": 0,
        "meta_classification_type": "U",
        "meta_norad_cat_id": 30936,
        "meta_element_set_no": 999,
        "meta_rev_at_epoch": 97269,
        "meta_bstar": 0.00045600868,
        "meta_mean_motion_dot": 1.003e-05,
        "meta_mean_motion_ddot": 0,
        "tle_line1": "1 30936U 99025BAA 25356.33636391  .00001003  00000+0  45601-3 0  9993",
        "tle_line2": "2 30936  98.5808  26.8995 0046040 262.2654 227.4923 14.23394361972699"
      },
      "geometry": {
        "type": "Point",
        "coordinates": [
          59.80160137255559,
          -74.11742750180342
        ]
      }
    },
    {
      "type": "Feature",
      "properties": {
        "norad_id": 30937,
        "name": "FENGYUN 1C DEB",
        "group": "fengyun-1c-debris",
        "lat": 30.67783988616946,
        "lon": -125.12708060795912,
        "alt_km": 937.8882240541134,
        "timestamp": "2025-12-23T05:02:12.310335+00:00",
        "meta_object_name": "FENGYUN 1C DEB",
        "meta_object_id": "1999-025BAB",
        "meta_epoch": "2025-12-21T09:23:24.019008",
        "meta_mean_motion": 13.95588384,
        "meta_eccentricity": 0.00754585,
        "meta_inclination": 99.0879,
        "meta_ra_of_asc_node": 47.6315,
        "meta_arg_of_pericenter": 29.7142,
        "meta_mean_anomaly": 346.4011,
        "meta_ephemeris_type": 0,
        "meta_classification_type": "U",
        "meta_norad_cat_id": 30937,
        "meta_element_set_no": 999,
        "meta_rev_at_epoch": 95837,
        "meta_bstar": 3.5331567e-05,
        "meta_mean_motion_dot": 5e-08,
        "meta_mean_motion_ddot": 0,
        "tle_line1": "1 30937U 99025BAB 25355.39125022  .00000005  00000+0  35332-4 0  9995",
        "tle_line2": "2 30937  99.0879  47.6315 0075458  29.7142 346.4011 13.95588384958371"
      },
      "geometry": {
        "type": "Point",
        "coordinates": [
          -125.12708060795912,
          30.67783988616946
        ]
      }
    },
    {
      "type": "Feature",
      "properties": {
        "norad_id": 30938,
        "name": "FENGYUN 1C DEB",
        "group": "fengyun-1c-debris",
        "lat": 61.50377651070551,
        "lon": -5.773771968196108,
        "alt_km": 830.7582143868613,
        "timestamp": "2025-12-23T05:02:12.310345+00:00",
        "meta_object_name": "FENGYUN 1C DEB",
        "meta_object_id": "1999-025BAC",
        "meta_epoch": "2025-12-22T12:32:48.222240",
        "meta_mean_motion": 14.19833516,
        "meta_eccentricity": 0.00454626,
        "meta_inclination": 98.5904,
        "meta_ra_of_asc_node": 9.727,
        "meta_arg_of_pericenter": 315.154,
        "meta_mean_anomaly": 197.1516,
        "meta_ephemeris_type": 0,
        "meta_classification_type": "U",
        "meta_norad_cat_id": 30938,
        "meta_element_set_no": 999,
        "meta_rev_at_epoch": 97258,
        "meta_bstar": 0.00032116856,
        "meta_mean_motion_dot": 6.45e-06,
        "meta_mean_motion_ddot": 0,
        "tle_line1": "1 30938U 99025BAC 25356.52278035  .00000645  00000+0  32117-3 0  9992",
        "tle_line2": "2 30938  98.5904   9.7270 0045462 315.1540 197.1516 14.19833516972587"
      },
      "geometry": {
        "type": "Point",
        "coordinates": [
          -5.773771968196108,
          61.50377651070551
        ]
      }
    }
  ]
}